BEIDOU 3 (C01)          
1 36287U 10001A   21266.56152303 -.00000289  00000-0  00000+0 0  9999
2 36287   1.6502  40.2091 0003424  75.6745 229.3122  1.00268763 42836
BEIDOU 5 (C06)          
1 36828U 10036A   21265.88230862 -.00000137  00000-0  00000-0 0  9992
2 36828  54.1833 178.6942 0023233 181.8788  66.2792  1.00275384 40897
BEIDOU 6 (C04)          
1 37210U 10057A   21265.91945684 -.00000124  00000-0  00000-0 0  9996
2 37210   1.0078  56.2432 0006860 135.4498 301.2119  1.00269846 39956
BEIDOU 7 (C07)          
1 37256U 10068A   21265.35785578 -.00000187  00000-0  00000+0 0  9998
2 37256  50.7002 292.8469 0019556 185.9820 120.3854  1.00299926 39450
BEIDOU 8 (C08)          
1 37384U 11013A   21266.23855338 -.00000166  00000-0  00000+0 0  9998
2 37384  59.9147  56.9183 0018743 179.7896 317.6754  1.00279751 38347
BEIDOU 9 (C09)          
1 37763U 11038A   21266.21903385 -.00000085  00000-0  00000+0 0  9990
2 37763  54.4717 181.1517 0086630 226.9246 126.4961  1.00289684 37315
BEIDOU 10 (C10)         
1 37948U 11073A   21265.49962763 -.00000140  00000-0  00000-0 0  9991
2 37948  50.7967 292.4736 0079003 217.1852 128.0481  1.00271405 36064
BEIDOU 11 (C05)         
1 38091U 12008A   21266.15580406  .00000048  00000-0  00000+0 0  9999
2 38091   1.7611  70.0526 0003269 340.9521  66.0583  1.00269283 35156
BEIDOU 12 (C11)         
1 38250U 12018A   21266.42815422 -.00000112  00000-0  00000+0 0  9999
2 38250  56.7471   2.3806 0022811 244.4038 217.4413  1.86234326 64117
BEIDOU 13 (C12)         
1 38251U 12018B   21265.64999869 -.00000113  00000-0  00000-0 0  9993
2 38251  56.6695   1.7488 0013711 243.4477 101.0240  1.86234070 64098
BEIDOU 15 (C14)         
1 38775U 12050B   21266.17891116  .00000014  00000-0  00000+0 0  9993
2 38775  55.2528 120.6887 0012919 328.2819 208.0843  1.86231342 61480
BEIDOU 16 (C02)         
1 38953U 12059A   21265.95778399 -.00000186  00000-0  00000-0 0  9994
2 38953   1.3293  84.2499 0009420 292.4089  54.1556  1.00275383 32711
BEIDOU 17 (C31)         
1 40549U 15019A   21266.57409546 -.00000146  00000-0  00000+0 0  9996
2 40549  52.3334 315.8545 0038176 188.9539 155.8773  1.00299230 23752
BEIDOU 18 (C57)         
1 40748U 15037A   21266.19869013 -.00000113  00000-0  00000+0 0  9998
2 40748  55.9276   0.7596 0001407  41.3173 220.8124  1.86233335 41937
BEIDOU 19 (C58)         
1 40749U 15037B   21265.70239262 -.00000114  00000-0  00000-0 0  9994
2 40749  55.9310   0.7640 0002676 296.1190 128.9377  1.86232120 41923
BEIDOU 20 (C18)         
1 40938U 15053A   21266.08308894 -.00000115  00000-0  00000+0 0  9992
2 40938  51.9160 278.9415 0048369 195.9586  12.2963  1.00261642 22017
BEIDOU IGSO-6 (C13)     
1 41434U 16021A   21265.80650715 -.00000135  00000-0  00000-0 0  9994
2 41434  57.7117  55.6241 0043309 210.3196 119.3967  1.00293229 20141
BEIDOU-2 G7 (C03)       
1 41586U 16037A   21265.62251897 -.00000366  00000-0  00000-0 0  9993
2 41586   1.9055  68.9980 0007918  14.8253 252.5393  1.00274118 19456
BEIDOU-3 M1 (C19)       
1 43001U 17069A   21266.15094479  .00000014  00000-0  00000+0 0  9991
2 43001  55.4062 120.6539 0008217 295.1783  18.4543  1.86231889 26415
BEIDOU-3 M2 (C20)       
1 43002U 17069B   21266.07842962  .00000015  00000-0  00000+0 0  9992
2 43002  55.4055 120.6913 0007296 322.0974 346.2444  1.86231456 26403
BEIDOU-3 M3 (C27)       
1 43107U 18003A   21266.27984023 -.00000114  00000-0  00000+0 0  9995
2 43107  55.3721   1.7925 0004130  64.6708 184.6230  1.86232520 25171
BEIDOU-3 M4 (C28)       
1 43108U 18003B   21266.41697872 -.00000114  00000-0  00000+0 0  9995
2 43108  55.3665   1.7771 0003581 227.1533 159.2618  1.86232430 25188
BEIDOU-3 M5 (C21)       
1 43207U 18018A   21266.56021706  .00000011  00000-0  00000+0 0  9999
2 43207  55.3640 120.7628 0005523 353.1597 189.5019  1.86231768 24567
BEIDOU-3 M6 (C22)       
1 43208U 18018B   21265.28073804  .00000021  00000-0  00000-0 0  9996
2 43208  55.3644 120.8112 0006441 310.5971  49.4449  1.86231690 24547
BEIDOU-3 M7 (C29)       
1 43245U 18029A   21265.87505509 -.00000114  00000-0  00000-0 0  9990
2 43245  55.2986 359.5918 0000978 171.7474  76.4099  1.86232513 23708
BEIDOU-3 M8 (C30)       
1 43246U 18029B   21265.80732508 -.00000114  00000-0  10000-3 0  9999
2 43246  55.2957 359.6243 0002835 352.8490 256.1819  1.86232830 23690
BEIDOU IGSO-7 (C16)     
1 43539U 18057A   21265.88200780 -.00000142  00000-0  00000-0 0  9992
2 43539  55.0637 178.0854 0041280 224.2284  28.7843  1.00292151 11829
BEIDOU-3 M9 (C23)       
1 43581U 18062A   21266.12280594 -.00000001  00000-0  00000+0 0  9997
2 43581  54.3669 241.2448 0006288 273.0457  37.8007  1.86231821 21441
BEIDOU-3 M10 (C24)      
1 43582U 18062B   21265.72425833 -.00000005  00000-0  00000-0 0  9995
2 43582  54.3672 241.2487 0005478 330.1844 164.8944  1.86232210 21448
BEIDOU-3 M11 (C25)      
1 43602U 18067A   21266.34905892  .00000002  00000-0  00000+0 0  9995
2 43602  54.4448 239.8179 0006913 351.5519 244.4550  1.86231538 20949
BEIDOU-3 M12 (C26)      
1 43603U 18067B   21266.42586958  .00000003  00000-0  00000+0 0  9994
2 43603  54.4415 239.7830 0004511 334.0943 223.8499  1.86231463 20968
BEIDOU-3 M13 (C32)      
1 43622U 18072A   21266.39941970  .00000012  00000-0  00000+0 0  9996
2 43622  55.3306 120.3334 0005023 293.4310 276.7883  1.86231954 20472
BEIDOU-3 M14 (C33)      
1 43623U 18072B   21266.48249549  .00000012  00000-0  00000+0 0  9990
2 43623  55.3330 120.3216 0003646 332.4836  23.6654  1.86231962 20479
BEIDOU-3 M15 (C34)      
1 43647U 18078A   21266.48192920 -.00000114  00000-0  10000-3 0  9991
2 43647  55.1931 359.7516 0005160 358.2127 252.7723  1.86232710 19981
BEIDOU-3 M16 (C35)      
1 43648U 18078B   21265.73508008 -.00000115  00000-0  00000-0 0  9994
2 43648  55.1886 359.7847 0003219  18.5738 359.9742  1.86232356 19993
BEIDOU-3 G1 (C59)       
1 43683U 18085A   21265.55128499 -.00000291  00000-0  00000-0 0  9998
2 43683   0.9276 214.1365 0004482  23.2213 102.7759  1.00273424 10727
BEIDOU-3 M17 (C36)      
1 43706U 18093A   21265.86041445 -.00000004  00000-0  00000+0 0  9993
2 43706  54.4486 241.1199 0011408 272.8295  87.0032  1.86232020 19339
BEIDOU-3 M18 (C37)      
1 43707U 18093B   21265.46383851 -.00000008  00000-0  00000-0 0  9995
2 43707  54.4502 241.1247 0010050 291.5989 253.2948  1.86232141 19330
BEIDOU-3 IGSO-1 (C38)   
1 44204U 19023A   21266.41095425 -.00000203  00000-0  00000+0 0  9991
2 44204  56.1657  55.8548 0022566 184.8073  27.4683  1.00291638  9035
BEIDOU-2 G8             
1 44231U 19027A   21266.51841105 -.00000256  00000-0  00000+0 0  9998
2 44231   0.3012  35.0122 0007117 161.5564 137.2015  1.00271924  8743
BEIDOU-3 IGSO-2 (C39)   
1 44337U 19035A   21265.79743424 -.00000144  00000-0  00000-0 0  9995
2 44337  55.0981 174.1197 0020171 182.4122  51.5889  1.00282882  8366
BEIDOU-3 M23 (C45)      
1 44542U 19061A   21265.54679014 -.00000007  00000-0  10000-3 0  9990
2 44542  54.6736 241.2189 0009260 318.8602 234.3651  1.86231445 13590
BEIDOU-3 M24 (C46)      
1 44543U 19061B   21266.28646007  .00000002  00000-0  10000-3 0  9993
2 44543  54.6717 241.1639 0006992 305.4631 294.6577  1.86231749 13607
BEIDOU-3 IGSO-3         
1 44709U 19073A   21265.60788331 -.00000161  00000-0  00000+0 0  9994
2 44709  57.6916 299.1611 0020511 184.4606 216.1386  1.00287887  7125
BEIDOU-3 M21            
1 44793U 19078A   21266.28171560 -.00000114  00000-0  10000-3 0  9990
2 44793  55.0417 359.8118 0005078   7.3131  63.7435  1.86232210 12478
BEIDOU-3 M22            
1 44794U 19078B   21266.44399449 -.00000114  00000-0  00000+0 0  9992
2 44794  55.0162 359.8046 0003229   2.6093  88.4145  1.86232749 12476
BEIDOU-3 M19            
1 44864U 19090A   21265.75072966  .00000017  00000-0  00000-0 0  9991
2 44864  55.2661 120.5808 0014693 267.0120 273.8119  1.86232029 12049
BEIDOU-3 M20            
1 44865U 19090B   21265.61684979  .00000018  00000-0  00000-0 0  9991
2 44865  55.2680 120.6160 0013316 283.4620 257.5071  1.86231982 12011
BEIDOU-3 G2             
1 45344U 20017A   21265.90826978 -.00000154  00000-0  00000-0 0  9996
2 45344   2.3110 339.6775 0003772 161.4673 267.8336  1.00270958  5941
BEIDOU-3 G3             
1 45807U 20040A   21265.96280590 -.00000367  00000-0  00000-0 0  9992
2 45807   2.0614 299.0801 0009784 336.2669 183.7993  1.00276601  4750
